start=new Date('2022-05-29T00:00:00.000Z').valueOf();
sats=[{"CLASSIFICATION_TYPE":"U","NORAD_CAT_ID":"48430","CENTER_NAME":"EARTH","BSTAR":"-0.00391990000000","MEAN_ELEMENT_THEORY":"SGP4","ELEMENT_SET_NO":"999","EPOCH":"2022-05-28T22:00:00.999936","OBJECT_TYPE":"PAYLOAD","PERIAPSIS":"546.092","SITE":"AFETR","TLE_LINE2":"2 48430  53.0539 235.1550 0001425  54.4532 323.7029 15.06443899  1301","COUNTRY_CODE":"US","EPHEMERIS_TYPE":"0","APOAPSIS":"548.066","LAUNCH_DATE":"2021-05-09","PERIOD":"95.589","ECCENTRICITY":"0.00014250","MEAN_MOTION_DDOT":"0.0000000000000","OBJECT_NAME":"STARLINK-2729","TLE_LINE1":"1 48430U 21040C   22148.91667824 -.00058261  00000-0 -39199-2 0  9993","RA_OF_ASC_NODE":"235.1550","MEAN_MOTION":"15.06443899","FILE":"3469840","ARG_OF_PERICENTER":"54.4532","GP_ID":"204804526","DECAY_DATE":null,"MEAN_MOTION_DOT":"-0.00058261","REV_AT_EPOCH":"130","RCS_SIZE":"LARGE","REF_FRAME":"TEME","MEAN_ANOMALY":"323.7029","SEMIMAJOR_AXIS":"6925.214","INCLINATION":"53.0539","TIME_SYSTEM":"UTC","OBJECT_ID":"2021-040C"},{"ELEMENT_SET_NO":"999","EPOCH":"2022-05-28T22:00:00.999936","MEAN_ELEMENT_THEORY":"SGP4","BSTAR":"-0.00080679000000","CENTER_NAME":"EARTH","NORAD_CAT_ID":"48431","CLASSIFICATION_TYPE":"U","APOAPSIS":"548.077","EPHEMERIS_TYPE":"0","COUNTRY_CODE":"US","TLE_LINE2":"2 48431  53.0549 230.1517 0001337  67.4065 238.1607 15.06420303  1304","SITE":"AFETR","OBJECT_TYPE":"PAYLOAD","PERIAPSIS":"546.225","PERIOD":"95.591","LAUNCH_DATE":"2021-05-09","MEAN_MOTION":"15.06420303","RA_OF_ASC_NODE":"230.1517","TLE_LINE1":"1 48431U 21040D   22148.91667824 -.00012285  00000-0 -80679-3 0  9990","ECCENTRICITY":"0.00013370","MEAN_MOTION_DDOT":"0.0000000000000","OBJECT_NAME":"STARLINK-2700","GP_ID":"204803780","ARG_OF_PERICENTER":"67.4065","FILE":"3469840","RCS_SIZE":"LARGE","REF_FRAME":"TEME","REV_AT_EPOCH":"130","MEAN_MOTION_DOT":"-0.00012285","DECAY_DATE":null,"MEAN_ANOMALY":"238.1607","OBJECT_ID":"2021-040D","TIME_SYSTEM":"UTC","INCLINATION":"53.0549","SEMIMAJOR_AXIS":"6925.286"},{"TLE_LINE2":"2 48432  53.0534 225.2935 0001207  92.4337  86.8738 15.03971924  1304","COUNTRY_CODE":"US","APOAPSIS":"555.502","EPHEMERIS_TYPE":"0","OBJECT_TYPE":"PAYLOAD","PERIAPSIS":"553.828","SITE":"AFETR","BSTAR":"-0.00058170000000","MEAN_ELEMENT_THEORY":"SGP4","ELEMENT_SET_NO":"999","EPOCH":"2022-05-28T22:00:00.999936","CLASSIFICATION_TYPE":"U","NORAD_CAT_ID":"48432","CENTER_NAME":"EARTH","MEAN_MOTION":"15.03971924","MEAN_MOTION_DDOT":"0.0000000000000","ECCENTRICITY":"0.00012070","OBJECT_NAME":"STARLINK-2680","RA_OF_ASC_NODE":"225.2935","TLE_LINE1":"1 48432U 21040E   22148.91667824 -.00008383  00000-0 -58170-3 0  9996","PERIOD":"95.746","LAUNCH_DATE":"2021-05-09","RCS_SIZE":"LARGE","REF_FRAME":"TEME","DECAY_DATE":null,"REV_AT_EPOCH":"130","MEAN_MOTION_DOT":"-0.00008383","GP_ID":"204803530","FILE":"3469840","ARG_OF_PERICENTER":"92.4337","INCLINATION":"53.0534","TIME_SYSTEM":"UTC","OBJECT_ID":"2021-040E","SEMIMAJOR_AXIS":"6932.800","MEAN_ANOMALY":"86.8738"},{"LAUNCH_DATE":"2021-05-09","PERIOD":"95.734","RA_OF_ASC_NODE":"230.7102","TLE_LINE1":"1 48433U 21040F   22148.85287624  .00028026  00000-0  20095-2 0  9994","ECCENTRICITY":"0.00011710","MEAN_MOTION_DDOT":"0.0000000000000","OBJECT_NAME":"STARLINK-2699","MEAN_MOTION":"15.04166205","CENTER_NAME":"EARTH","NORAD_CAT_ID":"48433","CLASSIFICATION_TYPE":"U","EPOCH":"2022-05-28T20:28:08.507136","ELEMENT_SET_NO":"999","MEAN_ELEMENT_THEORY":"SGP4","BSTAR":"0.00200950000000","SITE":"AFETR","PERIAPSIS":"553.257","OBJECT_TYPE":"PAYLOAD","APOAPSIS":"554.880","EPHEMERIS_TYPE":"0","TLE_LINE2":"2 48433  53.0568 230.7102 0001171  65.5509 294.5601 15.04166205 58916","COUNTRY_CODE":"US","MEAN_ANOMALY":"294.5601","SEMIMAJOR_AXIS":"6932.203","OBJECT_ID":"2021-040F","TIME_SYSTEM":"UTC","INCLINATION":"53.0568","ARG_OF_PERICENTER":"65.5509","FILE":"3469840","GP_ID":"204804782","REV_AT_EPOCH":"5891","MEAN_MOTION_DOT":"0.00028026","DECAY_DATE":null,"REF_FRAME":"TEME","RCS_SIZE":"LARGE"},{"PERIOD":"95.745","LAUNCH_DATE":"2021-05-09","MEAN_MOTION":"15.03988973","MEAN_MOTION_DDOT":"0.0000000000000","OBJECT_NAME":"STARLINK-2692","ECCENTRICITY":"0.00015810","RA_OF_ASC_NODE":"235.5035","TLE_LINE1":"1 48434U 21040G   22148.91667824 -.00023982  00000-0 -17038-2 0  9997","BSTAR":"-0.00170380000000","MEAN_ELEMENT_THEORY":"SGP4","ELEMENT_SET_NO":"999","EPOCH":"2022-05-28T22:00:00.999936","CLASSIFICATION_TYPE":"U","NORAD_CAT_ID":"48434","CENTER_NAME":"EARTH","TLE_LINE2":"2 48434  53.0541 235.5035 0001581  69.2004 186.3652 15.03988973  1300","COUNTRY_CODE":"US","EPHEMERIS_TYPE":"0","APOAPSIS":"555.709","PERIAPSIS":"553.517","OBJECT_TYPE":"PAYLOAD","SITE":"AFETR","MEAN_ANOMALY":"186.3652","TIME_SYSTEM":"UTC","INCLINATION":"53.0541","OBJECT_ID":"2021-040G","SEMIMAJOR_AXIS":"6932.748","GP_ID":"204805027","FILE":"3469840","ARG_OF_PERICENTER":"69.2004","RCS_SIZE":"LARGE","REF_FRAME":"TEME","DECAY_DATE":null,"MEAN_MOTION_DOT":"-0.00023982","REV_AT_EPOCH":"130"},{"SEMIMAJOR_AXIS":"6925.342","OBJECT_ID":"2021-040H","INCLINATION":"53.0554","TIME_SYSTEM":"UTC","MEAN_ANOMALY":"306.1974","DECAY_DATE":null,"REV_AT_EPOCH":"5868","MEAN_MOTION_DOT":"0.00003159","REF_FRAME":"TEME","RCS_SIZE":"LARGE","FILE":"3469840","ARG_OF_PERICENTER":"53.9177","GP_ID":"204803281","TLE_LINE1":"1 48435U 21040H   22148.69128962  .00003159  00000-0  23086-3 0  9991","RA_OF_ASC_NODE":"246.1544","ECCENTRICITY":"0.00017540","MEAN_MOTION_DDOT":"0.0000000000000","OBJECT_NAME":"STARLINK-2633","MEAN_MOTION":"15.06402149","LAUNCH_DATE":"2021-05-09","PERIOD":"95.592","PERIAPSIS":"545.992","OBJECT_TYPE":"PAYLOAD","SITE":"AFETR","COUNTRY_CODE":"US","TLE_LINE2":"2 48435  53.0554 246.1544 0001754  53.9177 306.1974 15.06402149 58682","APOAPSIS":"548.422","EPHEMERIS_TYPE":"0","CENTER_NAME":"EARTH","CLASSIFICATION_TYPE":"U","NORAD_CAT_ID":"48435","MEAN_ELEMENT_THEORY":"SGP4","BSTAR":"0.00023086000000","ELEMENT_SET_NO":"999","EPOCH":"2022-05-28T16:35:27.423168"},{"REV_AT_EPOCH":"5848","MEAN_MOTION_DOT":"0.00000052","DECAY_DATE":null,"REF_FRAME":"TEME","RCS_SIZE":"LARGE","ARG_OF_PERICENTER":"66.5348","FILE":"3469840","GP_ID":"204804031","SEMIMAJOR_AXIS":"6925.356","OBJECT_ID":"2021-040J","INCLINATION":"53.0557","TIME_SYSTEM":"UTC","MEAN_ANOMALY":"293.5805","SITE":"AFETR","PERIAPSIS":"546.136","OBJECT_TYPE":"PAYLOAD","EPHEMERIS_TYPE":"0","APOAPSIS":"548.305","COUNTRY_CODE":"US","TLE_LINE2":"2 48436  53.0557 260.9035 0001566  66.5348 293.5805 15.06397716 58489","CENTER_NAME":"EARTH","NORAD_CAT_ID":"48436","CLASSIFICATION_TYPE":"U","EPOCH":"2022-05-28T17:57:05.796864","ELEMENT_SET_NO":"999","MEAN_ELEMENT_THEORY":"SGP4","BSTAR":"0.00002236100000","TLE_LINE1":"1 48436U 21040J   22148.74798376  .00000052  00000-0  22361-4 0  9995","RA_OF_ASC_NODE":"260.9035","MEAN_MOTION_DDOT":"0.0000000000000","OBJECT_NAME":"STARLINK-2639","ECCENTRICITY":"0.00015660","MEAN_MOTION":"15.06397716","LAUNCH_DATE":"2021-05-09","PERIOD":"95.592"},{"REF_FRAME":"TEME","RCS_SIZE":"LARGE","MEAN_MOTION_DOT":"0.00002045","REV_AT_EPOCH":"5834","DECAY_DATE":null,"GP_ID":"204804282","ARG_OF_PERICENTER":"56.3885","FILE":"3469840","OBJECT_ID":"2021-040K","INCLINATION":"53.0528","TIME_SYSTEM":"UTC","SEMIMAJOR_AXIS":"6925.350","MEAN_ANOMALY":"303.7253","APOAPSIS":"548.297","EPHEMERIS_TYPE":"0","TLE_LINE2":"2 48437  53.0528 270.9640 0001563  56.3885 303.7253 15.06399597 58346","COUNTRY_CODE":"US","SITE":"AFETR","OBJECT_TYPE":"PAYLOAD","PERIAPSIS":"546.132","EPOCH":"2022-05-28T17:34:32.074752","ELEMENT_SET_NO":"999","MEAN_ELEMENT_THEORY":"SGP4","BSTAR":"0.00015614000000","CENTER_NAME":"EARTH","NORAD_CAT_ID":"48437","CLASSIFICATION_TYPE":"U","MEAN_MOTION":"15.06399597","TLE_LINE1":"1 48437U 21040K   22148.73231568  .00002045  00000-0  15614-3 0  9996","RA_OF_ASC_NODE":"270.9640","MEAN_MOTION_DDOT":"0.0000000000000","OBJECT_NAME":"STARLINK-2642","ECCENTRICITY":"0.00015630","PERIOD":"95.592","LAUNCH_DATE":"2021-05-09"},{"CENTER_NAME":"EARTH","CLASSIFICATION_TYPE":"U","NORAD_CAT_ID":"48438","BSTAR":"-0.00002448600000","MEAN_ELEMENT_THEORY":"SGP4","EPOCH":"2022-05-28T14:40:44.302368","ELEMENT_SET_NO":"999","PERIAPSIS":"545.778","OBJECT_TYPE":"PAYLOAD","SITE":"AFETR","COUNTRY_CODE":"US","TLE_LINE2":"2 48438  53.0558 261.5187 0002174  45.3265 314.7901 15.06377171 58460","APOAPSIS":"548.789","EPHEMERIS_TYPE":"0","LAUNCH_DATE":"2021-05-09","PERIOD":"95.594","TLE_LINE1":"1 48438U 21040L   22148.61162387 -.00000646  00000-0 -24486-4 0  9991","RA_OF_ASC_NODE":"261.5187","MEAN_MOTION_DDOT":"0.0000000000000","ECCENTRICITY":"0.00021740","OBJECT_NAME":"STARLINK-2640","MEAN_MOTION":"15.06377171","FILE":"3469840","ARG_OF_PERICENTER":"45.3265","GP_ID":"204804527","DECAY_DATE":null,"REV_AT_EPOCH":"5846","MEAN_MOTION_DOT":"-0.00000646","REF_FRAME":"TEME","RCS_SIZE":"LARGE","MEAN_ANOMALY":"314.7901","SEMIMAJOR_AXIS":"6925.419","OBJECT_ID":"2021-040L","TIME_SYSTEM":"UTC","INCLINATION":"53.0558"},{"ARG_OF_PERICENTER":"65.5898","FILE":"3469840","GP_ID":"204803781","REV_AT_EPOCH":"5846","MEAN_MOTION_DOT":"0.00001091","DECAY_DATE":null,"RCS_SIZE":"LARGE","REF_FRAME":"TEME","MEAN_ANOMALY":"294.5250","SEMIMAJOR_AXIS":"6925.357","INCLINATION":"53.0528","TIME_SYSTEM":"UTC","OBJECT_ID":"2021-040M","NORAD_CAT_ID":"48439","CLASSIFICATION_TYPE":"U","CENTER_NAME":"EARTH","ELEMENT_SET_NO":"999","EPOCH":"2022-05-28T14:35:23.552736","MEAN_ELEMENT_THEORY":"SGP4","BSTAR":"0.00009211600000","SITE":"AFETR","OBJECT_TYPE":"PAYLOAD","PERIAPSIS":"546.163","EPHEMERIS_TYPE":"0","APOAPSIS":"548.281","COUNTRY_CODE":"US","TLE_LINE2":"2 48439  53.0528 261.5459 0001529  65.5898 294.5250 15.06397351 58463","LAUNCH_DATE":"2021-05-09","PERIOD":"95.592","MEAN_MOTION_DDOT":"0.0000000000000","ECCENTRICITY":"0.00015290","OBJECT_NAME":"STARLINK-2583","TLE_LINE1":"1 48439U 21040M   22148.60791149  .00001091  00000-0  92116-4 0  9993","RA_OF_ASC_NODE":"261.5459","MEAN_MOTION":"15.06397351"}];
